start=new Date('2021-12-04T00:00:00.000Z').valueOf();
sats=[{"OBJECT_NAME":"STARLINK-1207","EPHEMERIS_TYPE":"0","COUNTRY_CODE":"US","TLE_LINE2":"2 45380  53.0529 297.6420 0001428  81.3105 278.8046 15.06390667 95281","GP_ID":"191008825","MEAN_ELEMENT_THEORY":"SGP4","PERIOD":"95.593","TIME_SYSTEM":"UTC","MEAN_MOTION_DDOT":"0.0000000000000","REF_FRAME":"TEME","SEMIMAJOR_AXIS":"6925.377","INCLINATION":"53.0529","OBJECT_TYPE":"PAYLOAD","ARG_OF_PERICENTER":"81.3105","RA_OF_ASC_NODE":"297.6420","EPOCH":"2021-12-03T09:13:43.588128","DECAY_DATE":null,"REV_AT_EPOCH":"9528","TLE_LINE1":"1 45380U 20019W   21337.38453227 -.00001440  00000-0 -77837-4 0  9999","ELEMENT_SET_NO":"999","CENTER_NAME":"EARTH","OBJECT_ID":"2020-019W","SITE":"AFETR","NORAD_CAT_ID":"45380","MEAN_ANOMALY":"278.8046","ECCENTRICITY":"0.00014280","MEAN_MOTION":"15.06390667","APOAPSIS":"548.231","CLASSIFICATION_TYPE":"U","RCS_SIZE":"LARGE","LAUNCH_DATE":"2020-03-18","MEAN_MOTION_DOT":"-0.00001440","PERIAPSIS":"546.253","FILE":"3231740","BSTAR":"-0.00007783700000"},{"CLASSIFICATION_TYPE":"U","APOAPSIS":"548.632","RCS_SIZE":"LARGE","MEAN_MOTION_DOT":"0.00000749","LAUNCH_DATE":"2020-03-18","PERIAPSIS":"545.834","FILE":"3231740","BSTAR":"0.00006920000000","ECCENTRICITY":"0.00020200","MEAN_MOTION":"15.06393575","ELEMENT_SET_NO":"999","CENTER_NAME":"EARTH","OBJECT_ID":"2020-019X","SITE":"AFETR","NORAD_CAT_ID":"45381","MEAN_ANOMALY":"304.6541","ARG_OF_PERICENTER":"55.4639","EPOCH":"2021-12-03T09:29:39.275808","RA_OF_ASC_NODE":"297.5835","DECAY_DATE":null,"REV_AT_EPOCH":"9528","TLE_LINE1":"1 45381U 20019X   21337.39559347  .00000749  00000-0  69200-4 0  9995","SEMIMAJOR_AXIS":"6925.368","INCLINATION":"53.0539","OBJECT_TYPE":"PAYLOAD","MEAN_MOTION_DDOT":"0.0000000000000","REF_FRAME":"TEME","MEAN_ELEMENT_THEORY":"SGP4","TIME_SYSTEM":"UTC","PERIOD":"95.593","OBJECT_NAME":"STARLINK-1258","EPHEMERIS_TYPE":"0","COUNTRY_CODE":"US","TLE_LINE2":"2 45381  53.0539 297.5835 0002020  55.4639 304.6541 15.06393575 95284","GP_ID":"191010076"},{"REF_FRAME":"TEME","MEAN_MOTION_DDOT":"0.0000000000000","SEMIMAJOR_AXIS":"6925.343","INCLINATION":"53.0543","OBJECT_TYPE":"PAYLOAD","COUNTRY_CODE":"US","OBJECT_NAME":"STARLINK-1264","EPHEMERIS_TYPE":"0","GP_ID":"191009827","TLE_LINE2":"2 45382  53.0543 297.9912 0002304  50.7463 309.3731 15.06401851 95097","MEAN_ELEMENT_THEORY":"SGP4","TIME_SYSTEM":"UTC","PERIOD":"95.592","ECCENTRICITY":"0.00023040","MEAN_MOTION":"15.06401851","RCS_SIZE":"LARGE","PERIAPSIS":"545.612","LAUNCH_DATE":"2020-03-18","MEAN_MOTION_DOT":"0.00004095","CLASSIFICATION_TYPE":"U","APOAPSIS":"548.803","BSTAR":"0.00029365000000","FILE":"3231740","ARG_OF_PERICENTER":"50.7463","RA_OF_ASC_NODE":"297.9912","EPOCH":"2021-12-03T07:22:16.136544","TLE_LINE1":"1 45382U 20019Y   21337.30713121  .00004095  00000-0  29365-3 0  9994","DECAY_DATE":null,"REV_AT_EPOCH":"9509","CENTER_NAME":"EARTH","ELEMENT_SET_NO":"999","SITE":"AFETR","NORAD_CAT_ID":"45382","MEAN_ANOMALY":"309.3731","OBJECT_ID":"2020-019Y"},{"OBJECT_ID":"2020-019Z","NORAD_CAT_ID":"45383","MEAN_ANOMALY":"303.2926","SITE":"AFETR","ELEMENT_SET_NO":"999","CENTER_NAME":"EARTH","REV_AT_EPOCH":"9536","DECAY_DATE":null,"TLE_LINE1":"1 45383U 20019Z   21337.91900289 -.00001486  00000-0 -80884-4 0  9992","EPOCH":"2021-12-03T22:03:21.849696","RA_OF_ASC_NODE":"295.2311","ARG_OF_PERICENTER":"56.8251","FILE":"3231878","BSTAR":"-0.00008088400000","APOAPSIS":"548.603","CLASSIFICATION_TYPE":"U","PERIAPSIS":"545.895","LAUNCH_DATE":"2020-03-18","MEAN_MOTION_DOT":"-0.00001486","RCS_SIZE":"LARGE","MEAN_MOTION":"15.06388313","ECCENTRICITY":"0.00019550","PERIOD":"95.593","TIME_SYSTEM":"UTC","MEAN_ELEMENT_THEORY":"SGP4","TLE_LINE2":"2 45383  53.0538 295.2311 0001955  56.8251 303.2926 15.06388313 95365","GP_ID":"191016225","EPHEMERIS_TYPE":"0","OBJECT_NAME":"STARLINK-1266","COUNTRY_CODE":"US","INCLINATION":"53.0538","OBJECT_TYPE":"PAYLOAD","SEMIMAJOR_AXIS":"6925.384","MEAN_MOTION_DDOT":"0.0000000000000","REF_FRAME":"TEME"},{"MEAN_MOTION_DOT":"0.00001489","LAUNCH_DATE":"2020-03-18","PERIAPSIS":"545.960","RCS_SIZE":"LARGE","APOAPSIS":"548.513","CLASSIFICATION_TYPE":"U","BSTAR":"0.00011888000000","FILE":"3231740","ECCENTRICITY":"0.00018430","MEAN_MOTION":"15.06392611","CENTER_NAME":"EARTH","ELEMENT_SET_NO":"999","MEAN_ANOMALY":"303.5563","NORAD_CAT_ID":"45384","SITE":"AFETR","OBJECT_ID":"2020-019AA","RA_OF_ASC_NODE":"297.9574","EPOCH":"2021-12-03T07:27:34.812576","ARG_OF_PERICENTER":"56.5602","TLE_LINE1":"1 45384U 20019AA  21337.31081959  .00001489  00000-0  11888-3 0  9999","REV_AT_EPOCH":"9527","DECAY_DATE":null,"SEMIMAJOR_AXIS":"6925.371","INCLINATION":"53.0559","OBJECT_TYPE":"PAYLOAD","REF_FRAME":"TEME","MEAN_MOTION_DDOT":"0.0000000000000","MEAN_ELEMENT_THEORY":"SGP4","PERIOD":"95.593","TIME_SYSTEM":"UTC","COUNTRY_CODE":"US","EPHEMERIS_TYPE":"0","OBJECT_NAME":"STARLINK-1267","GP_ID":"191009325","TLE_LINE2":"2 45384  53.0559 297.9574 0001843  56.5602 303.5563 15.06392611 95278"},{"OBJECT_NAME":"STARLINK-1272","EPHEMERIS_TYPE":"0","COUNTRY_CODE":"US","TLE_LINE2":"2 45386  53.0550 295.5744 0001880  57.5290 302.5881 15.06395613 95355","GP_ID":"191037031","MEAN_ELEMENT_THEORY":"SGP4","TIME_SYSTEM":"UTC","PERIOD":"95.592","MEAN_MOTION_DDOT":"0.0000000000000","REF_FRAME":"TEME","SEMIMAJOR_AXIS":"6925.362","OBJECT_TYPE":"PAYLOAD","INCLINATION":"53.0550","ARG_OF_PERICENTER":"57.5290","EPOCH":"2021-12-03T20:17:12.000192","RA_OF_ASC_NODE":"295.5744","DECAY_DATE":null,"REV_AT_EPOCH":"9535","TLE_LINE1":"1 45386U 20019AC  21337.84527778  .00000110  00000-0  26289-4 0  9995","ELEMENT_SET_NO":"999","CENTER_NAME":"EARTH","OBJECT_ID":"2020-019AC","SITE":"AFETR","NORAD_CAT_ID":"45386","MEAN_ANOMALY":"302.5881","ECCENTRICITY":"0.00018800","MEAN_MOTION":"15.06395613","APOAPSIS":"548.529","CLASSIFICATION_TYPE":"U","RCS_SIZE":"LARGE","MEAN_MOTION_DOT":"0.00000110","LAUNCH_DATE":"2020-03-18","PERIAPSIS":"545.925","BSTAR":"0.00002628900000","FILE":"3231910"},{"TLE_LINE2":"2 45387  53.0545 298.1521 0001927  55.2112 304.9058 15.06396927 95263","GP_ID":"191010327","OBJECT_NAME":"STARLINK-1274","EPHEMERIS_TYPE":"0","COUNTRY_CODE":"US","PERIOD":"95.592","TIME_SYSTEM":"UTC","MEAN_ELEMENT_THEORY":"SGP4","MEAN_MOTION_DDOT":"0.0000000000000","REF_FRAME":"TEME","INCLINATION":"53.0545","OBJECT_TYPE":"PAYLOAD","SEMIMAJOR_AXIS":"6925.358","DECAY_DATE":null,"REV_AT_EPOCH":"9526","TLE_LINE1":"1 45387U 20019AD  21337.27026805  .00000870  00000-0  77335-4 0  9999","ARG_OF_PERICENTER":"55.2112","RA_OF_ASC_NODE":"298.1521","EPOCH":"2021-12-03T06:29:11.159520","OBJECT_ID":"2020-019AD","SITE":"AFETR","NORAD_CAT_ID":"45387","MEAN_ANOMALY":"304.9058","ELEMENT_SET_NO":"999","CENTER_NAME":"EARTH","MEAN_MOTION":"15.06396927","ECCENTRICITY":"0.00019270","BSTAR":"0.00007733500000","FILE":"3231740","CLASSIFICATION_TYPE":"U","APOAPSIS":"548.557","RCS_SIZE":"LARGE","LAUNCH_DATE":"2020-03-18","PERIAPSIS":"545.888","MEAN_MOTION_DOT":"0.00000870"},{"GP_ID":"191008577","TLE_LINE2":"2 45388  53.0548 317.6898 0001993  72.1909 287.9297 15.06404138 94994","COUNTRY_CODE":"US","OBJECT_NAME":"STARLINK-1280","EPHEMERIS_TYPE":"0","TIME_SYSTEM":"UTC","PERIOD":"95.592","MEAN_ELEMENT_THEORY":"SGP4","REF_FRAME":"TEME","MEAN_MOTION_DDOT":"0.0000000000000","OBJECT_TYPE":"PAYLOAD","INCLINATION":"53.0548","SEMIMAJOR_AXIS":"6925.336","TLE_LINE1":"1 45388U 20019AE  21337.37163116  .00000261  00000-0  36426-4 0  9998","DECAY_DATE":null,"REV_AT_EPOCH":"9499","ARG_OF_PERICENTER":"72.1909","EPOCH":"2021-12-03T08:55:08.932224","RA_OF_ASC_NODE":"317.6898","SITE":"AFETR","MEAN_ANOMALY":"287.9297","NORAD_CAT_ID":"45388","OBJECT_ID":"2020-019AE","CENTER_NAME":"EARTH","ELEMENT_SET_NO":"999","MEAN_MOTION":"15.06404138","ECCENTRICITY":"0.00019930","FILE":"3231740","BSTAR":"0.00003642600000","RCS_SIZE":"LARGE","PERIAPSIS":"545.821","LAUNCH_DATE":"2020-03-18","MEAN_MOTION_DOT":"0.00000261","APOAPSIS":"548.581","CLASSIFICATION_TYPE":"U"},{"OBJECT_NAME":"STARLINK-1283","EPHEMERIS_TYPE":"0","COUNTRY_CODE":"US","TLE_LINE2":"2 45389  53.0541 298.3650 0001789  56.1327 303.9832 15.06400086 95261","GP_ID":"191008826","MEAN_ELEMENT_THEORY":"SGP4","TIME_SYSTEM":"UTC","PERIOD":"95.592","MEAN_MOTION_DDOT":"0.0000000000000","REF_FRAME":"TEME","SEMIMAJOR_AXIS":"6925.348","INCLINATION":"53.0541","OBJECT_TYPE":"PAYLOAD","ARG_OF_PERICENTER":"56.1327","EPOCH":"2021-12-03T05:14:52.312128","RA_OF_ASC_NODE":"298.3650","DECAY_DATE":null,"REV_AT_EPOCH":"9526","TLE_LINE1":"1 45389U 20019AF  21337.21866102  .00002745  00000-0  20310-3 0  9990","ELEMENT_SET_NO":"999","CENTER_NAME":"EARTH","OBJECT_ID":"2020-019AF","SITE":"AFETR","NORAD_CAT_ID":"45389","MEAN_ANOMALY":"303.9832","ECCENTRICITY":"0.00017890","MEAN_MOTION":"15.06400086","CLASSIFICATION_TYPE":"U","APOAPSIS":"548.452","RCS_SIZE":"LARGE","LAUNCH_DATE":"2020-03-18","MEAN_MOTION_DOT":"0.00002745","PERIAPSIS":"545.974","BSTAR":"0.00020310000000","FILE":"3231740"},{"ECCENTRICITY":"0.00017640","MEAN_MOTION":"15.06396930","APOAPSIS":"548.445","CLASSIFICATION_TYPE":"U","RCS_SIZE":"LARGE","PERIAPSIS":"546.001","LAUNCH_DATE":"2020-03-18","MEAN_MOTION_DOT":"0.00000483","FILE":"3231464","BSTAR":"0.00005134800000","ARG_OF_PERICENTER":"58.6794","EPOCH":"2021-12-03T04:37:43.512672","RA_OF_ASC_NODE":"298.5049","DECAY_DATE":null,"REV_AT_EPOCH":"9525","TLE_LINE1":"1 45390U 20019AG  21337.19286473  .00000483  00000-0  51348-4 0  9999","ELEMENT_SET_NO":"999","CENTER_NAME":"EARTH","OBJECT_ID":"2020-019AG","SITE":"AFETR","NORAD_CAT_ID":"45390","MEAN_ANOMALY":"301.4368","MEAN_MOTION_DDOT":"0.0000000000000","REF_FRAME":"TEME","SEMIMAJOR_AXIS":"6925.358","INCLINATION":"53.0554","OBJECT_TYPE":"PAYLOAD","OBJECT_NAME":"STARLINK-1284","EPHEMERIS_TYPE":"0","COUNTRY_CODE":"US","TLE_LINE2":"2 45390  53.0554 298.5049 0001764  58.6794 301.4368 15.06396930 95257","GP_ID":"190983095","MEAN_ELEMENT_THEORY":"SGP4","TIME_SYSTEM":"UTC","PERIOD":"95.592"}];
